GOES 1 (SMS-C) [-]      
1 08366U 75100A   22243.53922057 -.00000226  00000+0  00000+0 0  9991
2 08366   8.0992 294.7820 0002848 245.1534 273.2957  1.00270343171173
GOES 2 [-]              
1 10061U 77048A   22244.46329686 -.00000083  00000+0  00000+0 0  9992
2 10061   9.6817 306.2822 0010130  25.9771 359.0062  0.99401199109759
GOES 3 [-]              
1 10953U 78062A   22243.84947950  .00000067  00000+0  00000+0 0  9991
2 10953  10.0167 310.8244 0003276 166.7373 204.8450  0.99360233114776
GOES 4 [-]              
1 11964U 80074A   22243.88044471  .00000074  00000+0  00000+0 0  9998
2 11964  10.9788 314.6503 0031827  78.0882 333.4418  0.99226803113697
GOES 5 [-]              
1 12472U 81049A   22243.67819698 -.00000268  00000+0  00000+0 0  9990
2 12472  11.8303 326.0505 0002532 181.4481   4.1795  1.00306229108956
GOES 6 [-]              
1 14050U 83041A   22243.69293212 -.00000256  00000+0  00000+0 0  9995
2 14050  12.3951 331.3645 0005187 156.2887  25.6921  1.00286993202126
GOES 7 [-]              
1 17561U 87022A   22243.63836677 -.00000297  00000+0  00000+0 0  9995
2 17561  14.1787 347.9267 0005125  81.8753 286.3540  0.99909005113120
GOES 8 [-]              
1 23051U 94022A   22243.12375095 -.00000208  00000+0  00000+0 0  9992
2 23051  13.2394  23.6566 0005896  58.3763 296.4937  0.98907690110418
GOES 9 [-]              
1 23581U 95025A   22243.53214157  .00000026  00000+0  00000+0 0  9997
2 23581  12.7333  24.0011 0008792 110.2039 266.8844  0.98798894 99075
GOES 10 [-]             
1 24786U 97019A   22243.62502574 -.00000220  00000+0  00000+0 0  9990
2 24786  11.5028  30.1856 0026314 198.7462 325.6072  0.99126909 92339
GOES 11 [-]             
1 26352U 00022A   22243.73725263 -.00000078  00000+0  00000+0 0  9994
2 26352   8.8398  58.7123 0002380 110.9220 269.0708  0.99044447 38756
GOES 12 [-]             
1 26871U 01031A   22243.83452050 -.00000282  00000+0  00000+0 0  9990
2 26871   9.6500  47.6772 0004000 338.4622  26.2479  0.99139103 77033
EWS-G1 (GOES 13) [+]    
1 29155U 06018A   22244.50028168  .00000039  00000+0  00000+0 0  9991
2 29155   0.7754  96.1981 0005914 103.7029  22.3544  1.00274539 59625
GOES 14 [B]             
1 35491U 09033A   22244.55379318 -.00000090  00000+0  00000+0 0  9990
2 35491   0.4369 268.0469 0016977 302.0611 225.4131  1.00273483 48271
GOES 15 [B]             
1 36411U 10008A   22244.52505161  .00000055  00000+0  00000+0 0  9991
2 36411   0.3968 276.6429 0004808 249.3135 235.8133  1.00276493 45776
GOES 16 [+]             
1 41866U 16071A   22244.47298795 -.00000246  00000+0  00000+0 0  9996
2 41866   0.0642 280.8425 0000451 264.9111 249.9374  1.00271530 21226
GOES 17 [+]             
1 43226U 18022A   22243.74309507  .00000100  00000+0  00000+0 0  9997
2 43226   0.0966 279.1804 0000297 223.3012 327.6198  1.00273286 16532
GOES 18 [+]             
1 51850U 22021A   22244.16091167  .00000099  00000+0  00000+0 0  9997
2 51850   0.0295  58.8714 0002812 149.9686  52.4090  1.00273109  1910
